{"type": "FeatureCollection", "features": [ {"type": "Feature", "properties": {"norad_id": 66687, "name": "TRANSPORTER-15X", "group": "last-30-days", "lat": -27.457386375469895, "lon": 74.35086470966523, "alt_km": 520.0331637511263, "timestamp": "2025-12-24T22:42:20.744839+00:00", "meta": {"OBJECT_NAME": "TRANSPORTER-15X", "OBJECT_ID": "2025-276X", "EPOCH": "2025-12-24T05:24:39.071808", "MEAN_MOTION": 15.16737847, "ECCENTRICITY": 0.0008099, "INCLINATION": 97.4383, "RA_OF_ASC_NODE": 69.7513, "ARG_OF_PERICENTER": 49.7417, "MEAN_ANOMALY": 310.4523, "EPHEMERIS_TYPE": 0, "CLASSIFICATION_TYPE": "U", "NORAD_CAT_ID": 66687, "ELEMENT_SET_NO": 999, "REV_AT_EPOCH": 386, "BSTAR": 0.00075838683, "MEAN_MOTION_DOT": 0.00014838, "MEAN_MOTION_DDOT": 0}, "tle": {"line1": "1 66687U 25276X   25358.22545222  .00014838  00000+0  75839-3 0  9990", "line2": "2 66687  97.4383  69.7513 0008099  49.7417 310.4523 15.16737847  3862"}}, "geometry": {"type": "Point", "coordinates": [74.35086470966523, -27.457386375469895]}}, {"type": "Feature", "properties": {"norad_id": 66688, "name": "TRANSPORTER-15Y", "group": "last-30-days", "lat": 9.287294306321572, "lon": 69.26537751647653, "alt_km": 518.0378363640311, "timestamp": "2025-12-24T22:42:20.744860+00:00", "meta": {"OBJECT_NAME": "TRANSPORTER-15Y", "OBJECT_ID": "2025-276Y", "EPOCH": "2025-12-24T05:15:06.999264", "MEAN_MOTION": 15.17099055, "ECCENTRICITY": 0.00038264, "INCLINATION": 97.4427, "RA_OF_ASC_NODE": 69.7761, "ARG_OF_PERICENTER": 242.4697, "MEAN_ANOMALY": 117.6148, "EPHEMERIS_TYPE": 0, "CLASSIFICATION_TYPE": "U", "NORAD_CAT_ID": 66688, "ELEMENT_SET_NO": 999, "REV_AT_EPOCH": 386, "BSTAR": 0.0005708681, "MEAN_MOTION_DOT": 0.00011256, "MEAN_MOTION_DDOT": 0}, "tle": {"line1": "1 66688U 25276Y   25358.21883101  .00011256  00000+0  57087-3 0  9997", "line2": "2 66688  97.4427  69.7761 0003826 242.4697 117.6148 15.17099055  3865"}}, "geometry": {"type": "Point", "coordinates": [69.26537751647653, 9.287294306321572]}}, {"type": "Feature", "properties": {"norad_id": 66689, "name": "TRANSPORTER-15Z", "group": "last-30-days", "lat": 62.45580697944221, "lon": -94.95548940514007, "alt_km": 474.42120382018675, "timestamp": "2025-12-24T22:42:20.744871+00:00", "meta": {"OBJECT_NAME": "TRANSPORTER-15Z", "OBJECT_ID": "2025-276Z", "EPOCH": "2025-12-22T21:27:46.425312", "MEAN_MOTION": 15.23073772, "ECCENTRICITY": 0.00272271, "INCLINATION": 97.4409, "RA_OF_ASC_NODE": 68.4858, "ARG_OF_PERICENTER": 260.8557, "MEAN_ANOMALY": 98.9599, "EPHEMERIS_TYPE": 0, "CLASSIFICATION_TYPE": "U", "NORAD_CAT_ID": 66689, "ELEMENT_SET_NO": 999, "REV_AT_EPOCH": 366, "BSTAR": 0.086131248, "MEAN_MOTION_DOT": 0.02294864, "MEAN_MOTION_DDOT": 0}, "tle": {"line1": "1 66689U 25276Z   25356.89428733  .02294864  00000+0  86131-1 0  9996", "line2": "2 66689  97.4409  68.4858 0027227 260.8557  98.9599 15.23073772  3663"}}, "geometry": {"type": "Point", "coordinates": [-94.95548940514007, 62.45580697944221]}}, {"type": "Feature", "properties": {"norad_id": 66690, "name": "TRANSPORTER-15AA", "group": "last-30-days", "lat": 8.805133873086875, "lon": 69.31845205250254, "alt_km": 518.2596163901826, "timestamp": "2025-12-24T22:42:20.744881+00:00", "meta": {"OBJECT_NAME": "TRANSPORTER-15AA", "OBJECT_ID": "2025-276AA", "EPOCH": "2025-12-24T05:15:13.926816", "MEAN_MOTION": 15.17080534, "ECCENTRICITY": 0.00035509, "INCLINATION": 97.439, "RA_OF_ASC_NODE": 69.7644, "ARG_OF_PERICENTER": 235.0362, "MEAN_ANOMALY": 125.0538, "EPHEMERIS_TYPE": 0, "CLASSIFICATION_TYPE": "U", "NORAD_CAT_ID": 66690, "ELEMENT_SET_NO": 999, "REV_AT_EPOCH": 386, "BSTAR": 0.00058179807, "MEAN_MOTION_DOT": 0.00011467, "MEAN_MOTION_DDOT": 0}, "tle": {"line1": "1 66690U 25276AA  25358.21891119  .00011467  00000+0  58180-3 0  9997", "line2": "2 66690  97.4390  69.7644 0003550 235.0362 125.0538 15.17080534  3866"}}, "geometry": {"type": "Point", "coordinates": [69.31845205250254, 8.805133873086875]}}, {"type": "Feature", "properties": {"norad_id": 66691, "name": "TRANSPORTER-15AB", "group": "last-30-days", "lat": 21.45544692617247, "lon": 67.54644449092451, "alt_km": 515.8421181646709, "timestamp": "2025-12-24T22:42:20.744891+00:00", "meta": {"OBJECT_NAME": "TRANSPORTER-15AB", "OBJECT_ID": "2025-276AB", "EPOCH": "2025-12-24T05:12:02.069568", "MEAN_MOTION": 15.17324498, "ECCENTRICITY": 0.00038168, "INCLINATION": 97.4415, "RA_OF_ASC_NODE": 69.7745, "ARG_OF_PERICENTER": 243.221, "MEAN_ANOMALY": 116.8633, "EPHEMERIS_TYPE": 0, "CLASSIFICATION_TYPE": "U", "NORAD_CAT_ID": 66691, "ELEMENT_SET_NO": 999, "REV_AT_EPOCH": 386, "BSTAR": 0.00066187489, "MEAN_MOTION_DOT": 0.00013149, "MEAN_MOTION_DDOT": 0}, "tle": {"line1": "1 66691U 25276AB  25358.21669062  .00013149  00000+0  66187-3 0  9993", "line2": "2 66691  97.4415  69.7745 0003816 243.2210 116.8633 15.17324498  3869"}}, "geometry": {"type": "Point", "coordinates": [67.54644449092451, 21.45544692617247]}}, {"type": "Feature", "properties": {"norad_id": 66692, "name": "TRANSPORTER-15AC", "group": "last-30-days", "lat": 39.03208404483323, "lon": 64.41920272164069, "alt_km": 511.6617034037572, "timestamp": "2025-12-24T22:42:20.744901+00:00", "meta": {"OBJECT_NAME": "TRANSPORTER-15AC", "OBJECT_ID": "2025-276AC", "EPOCH": "2025-12-23T03:48:04.245408", "MEAN_MOTION": 15.17403594, "ECCENTRICITY": 0.00017836, "INCLINATION": 97.442, "RA_OF_ASC_NODE": 68.746, "ARG_OF_PERICENTER": 265.923, "MEAN_ANOMALY": 94.18, "EPHEMERIS_TYPE": 0, "CLASSIFICATION_TYPE": "U", "NORAD_CAT_ID": 66692, "ELEMENT_SET_NO": 999, "REV_AT_EPOCH": 370, "BSTAR": 0.00037104473, "MEAN_MOTION_DOT": 7.352e-05, "MEAN_MOTION_DDOT": 0}, "tle": {"line1": "1 66692U 25276AC  25357.15838247  .00007352  00000+0  37104-3 0  9995", "line2": "2 66692  97.4420  68.7460 0001783 265.9230  94.1800 15.17403594  3705"}}, "geometry": {"type": "Point", "coordinates": [64.41920272164069, 39.03208404483323]}}, {"type": "Feature", "properties": {"norad_id": 66693, "name": "TRANSPORTER-15AD", "group": "last-30-days", "lat": 10.318629086468135, "lon": 69.10658608032752, "alt_km": 530.3741004745598, "timestamp": "2025-12-24T22:42:20.744914+00:00", "meta": {"OBJECT_NAME": "TRANSPORTER-15AD", "OBJECT_ID": "2025-276AD", "EPOCH": "2025-12-24T03:35:03.617088", "MEAN_MOTION": 15.12110895, "ECCENTRICITY": 0.00219356, "INCLINATION": 97.4375, "RA_OF_ASC_NODE": 69.6952, "ARG_OF_PERICENTER": 66.2072, "MEAN_ANOMALY": 294.1455, "EPHEMERIS_TYPE": 0, "CLASSIFICATION_TYPE": "U", "NORAD_CAT_ID": 66693, "ELEMENT_SET_NO": 999, "REV_AT_EPOCH": 385, "BSTAR": -0.10195187, "MEAN_MOTION_DOT": -0.0160531, "MEAN_MOTION_DDOT": 0}, "tle": {"line1": "1 66693U 25276AD  25358.14934742 -.01605310  00000+0 -10195+0 0  9991", "line2": "2 66693  97.4375  69.6952 0021935  66.2072 294.1455 15.12110895  3856"}}, "geometry": {"type": "Point", "coordinates": [69.10658608032752, 10.318629086468135]}}, {"type": "Feature", "properties": {"norad_id": 66694, "name": "YAM-9", "group": "last-30-days", "lat": 49.54691788178894, "lon": 61.68509281947758, "alt_km": 509.54957938212465, "timestamp": "2025-12-24T22:42:20.744924+00:00", "meta": {"OBJECT_NAME": "YAM-9", "OBJECT_ID": "2025-276AE", "EPOCH": "2025-12-22T15:05:57.357312", "MEAN_MOTION": 15.17554197, "ECCENTRICITY": 0.00015162, "INCLINATION": 97.4414, "RA_OF_ASC_NODE": 68.2259, "ARG_OF_PERICENTER": 262.5734, "MEAN_ANOMALY": 97.5327, "EPHEMERIS_TYPE": 0, "CLASSIFICATION_TYPE": "U", "NORAD_CAT_ID": 66694, "ELEMENT_SET_NO": 999, "REV_AT_EPOCH": 362, "BSTAR": 0.00067893264, "MEAN_MOTION_DOT": 0.00013577, "MEAN_MOTION_DDOT": 0}, "tle": {"line1": "1 66694U 25276AE  25356.62913608  .00013577  00000+0  67893-3 0  9997", "line2": "2 66694  97.4414  68.2259 0001516 262.5734  97.5327 15.17554197  3625"}}, "geometry": {"type": "Point", "coordinates": [61.68509281947758, 49.54691788178894]}}, {"type": "Feature", "properties": {"norad_id": 66695, "name": "IRIDE FM1", "group": "last-30-days", "lat": 65.91740696656512, "lon": -92.47625618047466, "alt_km": 503.67398304443486, "timestamp": "2025-12-24T22:42:20.744934+00:00", "meta": {"OBJECT_NAME": "IRIDE FM1", "OBJECT_ID": "2025-276AF", "EPOCH": "2025-12-24T01:38:51.674496", "MEAN_MOTION": 15.18285345, "ECCENTRICITY": 0.00014361, "INCLINATION": 97.4402, "RA_OF_ASC_NODE": 69.6602, "ARG_OF_PERICENTER": 142.4664, "MEAN_ANOMALY": 217.6671, "EPHEMERIS_TYPE": 0, "CLASSIFICATION_TYPE": "U", "NORAD_CAT_ID": 66695, "ELEMENT_SET_NO": 999, "REV_AT_EPOCH": 384, "BSTAR": 0.00054049679, "MEAN_MOTION_DOT": 0.00011021, "MEAN_MOTION_DDOT": 0}, "tle": {"line1": "1 66695U 25276AF  25358.06865364  .00011021  00000+0  54050-3 0  9996", "line2": "2 66695  97.4402  69.6602 0001436 142.4664 217.6671 15.18285345  3847"}}, "geometry": {"type": "Point", "coordinates": [-92.47625618047466, 65.91740696656512]}}, {"type": "Feature", "properties": {"norad_id": 66696, "name": "IRIDE FM2", "group": "last-30-days", "lat": 35.20260276744792, "lon": 65.19730393556017, "alt_km": 512.5373300724841, "timestamp": "2025-12-24T22:42:20.744944+00:00", "meta": {"OBJECT_NAME": "IRIDE FM2", "OBJECT_ID": "2025-276AG", "EPOCH": "2025-12-24T03:33:29.463552", "MEAN_MOTION": 15.17435502, "ECCENTRICITY": 0.00025118, "INCLINATION": 97.4387, "RA_OF_ASC_NODE": 69.7026, "ARG_OF_PERICENTER": 261.1415, "MEAN_ANOMALY": 98.9534, "EPHEMERIS_TYPE": 0, "CLASSIFICATION_TYPE": "U", "NORAD_CAT_ID": 66696, "ELEMENT_SET_NO": 999, "REV_AT_EPOCH": 385, "BSTAR": 0.00044570909, "MEAN_MOTION_DOT": 8.855e-05, "MEAN_MOTION_DDOT": 0}, "tle": {"line1": "1 66696U 25276AG  25358.14825768  .00008855  00000+0  44571-3 0  9998", "line2": "2 66696  97.4387  69.7026 0002511 261.1415  98.9534 15.17435502  3859"}}, "geometry": {"type": "Point", "coordinates": [65.19730393556017, 35.20260276744792]}}]}